start=new Date('2023-03-16T00:00:00.000Z').valueOf();
sats=[{"LAUNCH_DATE":"2020-01-07","OBJECT_NAME":"STARLINK-1116","APOAPSIS":"548.229","TLE_LINE2":"2 44947  53.0520 179.0903 0001396  67.5622 292.5515 15.06384111175867","BSTAR":"-0.00155600000000","MEAN_ANOMALY":"292.5515","MEAN_MOTION_DDOT":"0.0000000000000","REF_FRAME":"TEME","COUNTRY_CODE":"US","OBJECT_ID":"2020-001AK","MEAN_MOTION":"15.06384111","EPOCH":"2023-03-15T20:26:48.066144","TLE_LINE1":"1 44947U 20001AK  23074.85194521 -.00023372  00000-0 -15560-2 0  9990","EPHEMERIS_TYPE":"0","SITE":"AFETR","PERIAPSIS":"546.295","CENTER_NAME":"EARTH","RCS_SIZE":"LARGE","MEAN_ELEMENT_THEORY":"SGP4","OBJECT_TYPE":"PAYLOAD","TIME_SYSTEM":"UTC","ECCENTRICITY":"0.00013960","REV_AT_EPOCH":"17586","CLASSIFICATION_TYPE":"U","ELEMENT_SET_NO":"999","MEAN_MOTION_DOT":"-0.00023372","SEMIMAJOR_AXIS":"6925.397","ARG_OF_PERICENTER":"67.5622","INCLINATION":"53.0520","NORAD_CAT_ID":"44947","FILE":"3861599","GP_ID":"228203954","DECAY_DATE":null,"RA_OF_ASC_NODE":"179.0903","PERIOD":"95.593"},{"DECAY_DATE":null,"RA_OF_ASC_NODE":"180.4630","PERIOD":"95.588","INCLINATION":"53.0523","NORAD_CAT_ID":"44949","FILE":"3861530","GP_ID":"228183680","ELEMENT_SET_NO":"999","MEAN_MOTION_DOT":"0.00016784","SEMIMAJOR_AXIS":"6925.168","ARG_OF_PERICENTER":"82.7660","TIME_SYSTEM":"UTC","ECCENTRICITY":"0.00015720","REV_AT_EPOCH":"17581","CLASSIFICATION_TYPE":"U","EPHEMERIS_TYPE":"0","PERIAPSIS":"545.944","SITE":"AFETR","RCS_SIZE":"LARGE","CENTER_NAME":"EARTH","OBJECT_TYPE":"PAYLOAD","MEAN_ELEMENT_THEORY":"SGP4","TLE_LINE1":"1 44949U 20001AM  23074.54600595  .00016784  00000-0  11412-2 0  9990","REF_FRAME":"TEME","COUNTRY_CODE":"US","MEAN_MOTION":"15.06458870","OBJECT_ID":"2020-001AM","EPOCH":"2023-03-15T13:06:14.914080","OBJECT_NAME":"STARLINK-1122","LAUNCH_DATE":"2020-01-07","APOAPSIS":"548.122","TLE_LINE2":"2 44949  53.0523 180.4630 0001572  82.7660 277.3507 15.06458870175813","BSTAR":"0.00114120000000","MEAN_ANOMALY":"277.3507","MEAN_MOTION_DDOT":"0.0000000000000"},{"OBJECT_NAME":"STARLINK-1125","LAUNCH_DATE":"2020-01-07","APOAPSIS":"476.990","TLE_LINE2":"2 44950  53.0560 160.9626 0007512 351.6528   8.4346 15.31330396176089","BSTAR":"0.00430060000000","MEAN_ANOMALY":"8.4346","MEAN_MOTION_DDOT":"0.0000000000000","COUNTRY_CODE":"US","REF_FRAME":"TEME","OBJECT_ID":"2020-001AN","MEAN_MOTION":"15.31330396","EPOCH":"2023-03-15T11:26:18.606336","TLE_LINE1":"1 44950U 20001AN  23074.47660424  .00134047  00000-0  43006-2 0  9998","EPHEMERIS_TYPE":"0","SITE":"AFETR","PERIAPSIS":"466.698","RCS_SIZE":"LARGE","CENTER_NAME":"EARTH","OBJECT_TYPE":"PAYLOAD","MEAN_ELEMENT_THEORY":"SGP4","TIME_SYSTEM":"UTC","ECCENTRICITY":"0.00075120","REV_AT_EPOCH":"17608","CLASSIFICATION_TYPE":"U","ELEMENT_SET_NO":"999","MEAN_MOTION_DOT":"0.00134047","ARG_OF_PERICENTER":"351.6528","SEMIMAJOR_AXIS":"6849.979","INCLINATION":"53.0560","NORAD_CAT_ID":"44950","FILE":"3861350","GP_ID":"228146056","DECAY_DATE":null,"RA_OF_ASC_NODE":"160.9626","PERIOD":"94.036"},{"EPOCH":"2023-03-15T22:00:00.999936","REF_FRAME":"TEME","COUNTRY_CODE":"US","OBJECT_ID":"2020-001AP","MEAN_MOTION":"15.31867974","BSTAR":"0.00383560000000","MEAN_ANOMALY":"127.0612","MEAN_MOTION_DDOT":"0.0000000000000","OBJECT_NAME":"STARLINK-1126","LAUNCH_DATE":"2020-01-07","APOAPSIS":"474.914","TLE_LINE2":"2 44951  53.0163 140.7374 0006823  24.4366 127.0612 15.31867974  1307","RCS_SIZE":"LARGE","CENTER_NAME":"EARTH","OBJECT_TYPE":"PAYLOAD","MEAN_ELEMENT_THEORY":"SGP4","EPHEMERIS_TYPE":"0","SITE":"AFETR","PERIAPSIS":"465.569","TLE_LINE1":"1 44951U 20001AP  23074.91667824  .00121319  00000-0  38356-2 0  9999","ARG_OF_PERICENTER":"24.4366","SEMIMAJOR_AXIS":"6848.376","ELEMENT_SET_NO":"999","MEAN_MOTION_DOT":"0.00121319","REV_AT_EPOCH":"130","CLASSIFICATION_TYPE":"U","TIME_SYSTEM":"UTC","ECCENTRICITY":"0.00068230","RA_OF_ASC_NODE":"140.7374","PERIOD":"94.003","DECAY_DATE":null,"GP_ID":"228204706","INCLINATION":"53.0163","NORAD_CAT_ID":"44951","FILE":"3861599"},{"GP_ID":"228203455","INCLINATION":"53.0518","NORAD_CAT_ID":"44952","FILE":"3861599","RA_OF_ASC_NODE":"179.0564","PERIOD":"95.594","DECAY_DATE":null,"REV_AT_EPOCH":"17586","CLASSIFICATION_TYPE":"U","TIME_SYSTEM":"UTC","ECCENTRICITY":"0.00013870","ARG_OF_PERICENTER":"86.7917","SEMIMAJOR_AXIS":"6925.443","ELEMENT_SET_NO":"999","MEAN_MOTION_DOT":"-0.00014248","TLE_LINE1":"1 44952U 20001AQ  23074.85932687 -.00014248  00000-0 -94035-3 0  9996","RCS_SIZE":"LARGE","CENTER_NAME":"EARTH","OBJECT_TYPE":"PAYLOAD","MEAN_ELEMENT_THEORY":"SGP4","EPHEMERIS_TYPE":"0","SITE":"AFETR","PERIAPSIS":"546.347","BSTAR":"-0.00094035000000","MEAN_ANOMALY":"273.3230","MEAN_MOTION_DDOT":"0.0000000000000","LAUNCH_DATE":"2020-01-07","OBJECT_NAME":"STARLINK-1117","APOAPSIS":"548.269","TLE_LINE2":"2 44952  53.0518 179.0564 0001387  86.7917 273.3230 15.06369204175860","EPOCH":"2023-03-15T20:37:25.841568","REF_FRAME":"TEME","COUNTRY_CODE":"US","MEAN_MOTION":"15.06369204","OBJECT_ID":"2020-001AQ"},{"ECCENTRICITY":"0.00028190","TIME_SYSTEM":"UTC","CLASSIFICATION_TYPE":"U","REV_AT_EPOCH":"17710","MEAN_MOTION_DOT":"0.00003938","ELEMENT_SET_NO":"999","SEMIMAJOR_AXIS":"6925.245","ARG_OF_PERICENTER":"88.5073","NORAD_CAT_ID":"44953","FILE":"3861599","INCLINATION":"53.0532","GP_ID":"228204205","DECAY_DATE":null,"PERIOD":"95.590","RA_OF_ASC_NODE":"180.4694","TLE_LINE2":"2 44953  53.0532 180.4694 0002819  88.5073 271.6239 15.06433859177108","APOAPSIS":"549.062","OBJECT_NAME":"STARLINK-1124","LAUNCH_DATE":"2020-01-07","MEAN_MOTION_DDOT":"0.0000000000000","MEAN_ANOMALY":"271.6239","BSTAR":"0.00028287000000","OBJECT_ID":"2020-001AR","MEAN_MOTION":"15.06433859","COUNTRY_CODE":"US","REF_FRAME":"TEME","EPOCH":"2023-03-15T13:04:53.612544","TLE_LINE1":"1 44953U 20001AR  23074.54506496  .00003938  00000-0  28287-3 0  9996","SITE":"AFETR","PERIAPSIS":"545.158","EPHEMERIS_TYPE":"0","OBJECT_TYPE":"PAYLOAD","MEAN_ELEMENT_THEORY":"SGP4","CENTER_NAME":"EARTH","RCS_SIZE":"LARGE"},{"EPHEMERIS_TYPE":"0","PERIAPSIS":"545.957","SITE":"AFETR","RCS_SIZE":"LARGE","CENTER_NAME":"EARTH","MEAN_ELEMENT_THEORY":"SGP4","OBJECT_TYPE":"PAYLOAD","TLE_LINE1":"1 44954U 20001AS  23074.49259522  .00012714  00000-0  87147-3 0  9998","COUNTRY_CODE":"US","REF_FRAME":"TEME","OBJECT_ID":"2020-001AS","MEAN_MOTION":"15.06374099","EPOCH":"2023-03-15T11:49:20.227008","LAUNCH_DATE":"2020-01-07","OBJECT_NAME":"STARLINK-1066","APOAPSIS":"548.629","TLE_LINE2":"2 44954  53.0512 160.7053 0001929  71.8689 288.2510 15.06374099176033","BSTAR":"0.00087147000000","MEAN_ANOMALY":"288.2510","MEAN_MOTION_DDOT":"0.0000000000000","DECAY_DATE":null,"RA_OF_ASC_NODE":"160.7053","PERIOD":"95.594","INCLINATION":"53.0512","NORAD_CAT_ID":"44954","FILE":"3861350","GP_ID":"228145558","ELEMENT_SET_NO":"999","MEAN_MOTION_DOT":"0.00012714","ARG_OF_PERICENTER":"71.8689","SEMIMAJOR_AXIS":"6925.428","TIME_SYSTEM":"UTC","ECCENTRICITY":"0.00019290","REV_AT_EPOCH":"17603","CLASSIFICATION_TYPE":"U"},{"ELEMENT_SET_NO":"999","MEAN_MOTION_DOT":"0.00008517","ARG_OF_PERICENTER":"86.2631","SEMIMAJOR_AXIS":"6925.265","ECCENTRICITY":"0.00013150","TIME_SYSTEM":"UTC","REV_AT_EPOCH":"17603","CLASSIFICATION_TYPE":"U","DECAY_DATE":null,"RA_OF_ASC_NODE":"160.6672","PERIOD":"95.590","NORAD_CAT_ID":"44955","FILE":"3861350","INCLINATION":"53.0532","GP_ID":"228146807","COUNTRY_CODE":"US","REF_FRAME":"TEME","OBJECT_ID":"2020-001AT","MEAN_MOTION":"15.06427175","EPOCH":"2023-03-15T11:59:54.466080","APOAPSIS":"548.041","LAUNCH_DATE":"2020-01-07","OBJECT_NAME":"STARLINK-1069","TLE_LINE2":"2 44955  53.0532 160.6672 0001315  86.2631 273.8509 15.06427175176030","MEAN_ANOMALY":"273.8509","BSTAR":"0.00058952000000","MEAN_MOTION_DDOT":"0.0000000000000","PERIAPSIS":"546.220","SITE":"AFETR","EPHEMERIS_TYPE":"0","CENTER_NAME":"EARTH","RCS_SIZE":"LARGE","OBJECT_TYPE":"PAYLOAD","MEAN_ELEMENT_THEORY":"SGP4","TLE_LINE1":"1 44955U 20001AT  23074.49993595  .00008517  00000-0  58952-3 0  9992"},{"TLE_LINE2":"2 44956  53.0541 160.6827 0001637  83.1517 276.9658 15.06427643176094","APOAPSIS":"548.263","OBJECT_NAME":"STARLINK-1070","LAUNCH_DATE":"2020-01-07","MEAN_MOTION_DDOT":"0.0000000000000","MEAN_ANOMALY":"276.9658","BSTAR":"0.00094699000000","MEAN_MOTION":"15.06427643","OBJECT_ID":"2020-001AU","COUNTRY_CODE":"US","REF_FRAME":"TEME","EPOCH":"2023-03-15T11:53:14.411616","TLE_LINE1":"1 44956U 20001AU  23074.49530569  .00013862  00000-0  94699-3 0  9998","SITE":"AFETR","PERIAPSIS":"545.995","EPHEMERIS_TYPE":"0","MEAN_ELEMENT_THEORY":"SGP4","OBJECT_TYPE":"PAYLOAD","CENTER_NAME":"EARTH","RCS_SIZE":"LARGE","ECCENTRICITY":"0.00016370","TIME_SYSTEM":"UTC","CLASSIFICATION_TYPE":"U","REV_AT_EPOCH":"17609","MEAN_MOTION_DOT":"0.00013862","ELEMENT_SET_NO":"999","SEMIMAJOR_AXIS":"6925.264","ARG_OF_PERICENTER":"83.1517","FILE":"3861350","NORAD_CAT_ID":"44956","INCLINATION":"53.0541","GP_ID":"228146559","DECAY_DATE":null,"PERIOD":"95.590","RA_OF_ASC_NODE":"160.6827"},{"APOAPSIS":"547.988","LAUNCH_DATE":"2020-01-07","OBJECT_NAME":"STARLINK-1074","TLE_LINE2":"2 44957  53.0547 160.5609 0001439  94.8671 265.2482 15.06472365176095","MEAN_ANOMALY":"265.2482","BSTAR":"0.00332820000000","MEAN_MOTION_DDOT":"0.0000000000000","COUNTRY_CODE":"US","REF_FRAME":"TEME","OBJECT_ID":"2020-001AV","MEAN_MOTION":"15.06472365","EPOCH":"2023-03-15T12:30:23.996448","TLE_LINE1":"1 44957U 20001AV  23074.52111107  .00049740  00000-0  33282-2 0  9990","SITE":"AFETR","PERIAPSIS":"545.995","EPHEMERIS_TYPE":"0","RCS_SIZE":"LARGE","CENTER_NAME":"EARTH","OBJECT_TYPE":"PAYLOAD","MEAN_ELEMENT_THEORY":"SGP4","ECCENTRICITY":"0.00014390","TIME_SYSTEM":"UTC","REV_AT_EPOCH":"17609","CLASSIFICATION_TYPE":"U","ELEMENT_SET_NO":"999","MEAN_MOTION_DOT":"0.00049740","ARG_OF_PERICENTER":"94.8671","SEMIMAJOR_AXIS":"6925.127","NORAD_CAT_ID":"44957","FILE":"3861350","INCLINATION":"53.0547","GP_ID":"228145807","DECAY_DATE":null,"RA_OF_ASC_NODE":"160.5609","PERIOD":"95.588"}];
